DO-64
1 32789U 08021G   11033.76429568  .00000923  00000-0  12113-3 0 09068
2 32789 097.8747 100.9673 0014544 252.0872 107.8750 14.82571621149664
CO-66
1 32791U 08021J   11034.74497573  .00000592  00000-0  81366-4 0  8902
2 32791 097.8657 100.9497 0015020 248.8748 111.0854 14.81870645149744
RS-30
1 32953U 08025A   11034.69672127  .00000010  00000-0  00000 0 0  4384
2 32953 082.4978 245.7142 0018633 320.1622 039.8091 12.43010473122509
TACSAT-3
1 35001U 09028A   11034.86128549  .00004961  00000-0  10798-3 0  4959
2 35001 040.4551 259.6741 0024299 298.2766 061.5606 15.44638965 96437
PHARMSAT
1 35002U 09028B   11033.85276349  .00004337  00000-0  94248-4 0  4613
2 35002 040.4692 263.2408 0026336 295.1619 064.6475 15.44848942 96304
HAWKSAT1
1 35003U 09028C   11034.81370514  .00013391  00000-0  22119-3 0  5023
2 35003 040.4591 242.2735 0025262 326.0749 033.8506 15.51565422 96623
CP6
1 35004U 09028D   11033.95327067  .00015451  00000-0  23508-3 0 05058
2 35004 040.4596 243.5751 0024663 326.0330 033.8908 15.53771340096526
AEROCUB3
1 35005U 09028E   11006.09222617  .14049365  73043-5  82692-3 0  6103
2 35005 040.4461 021.7975 0025578 084.1677 280.7191 16.39196088 92544
METEOR-M
1 35865U 09049A   11034.72716586  .00000176  00000-0  10000-3 0   674
2 35865 098.7262 091.4727 0003318 059.2730 300.8728 14.21834242 71629
