Satellite: DO-64
Catalog number: 32789
Epoch time:      11033.76429568
Element set:    0906
Inclination:      097.8747 deg
RA of node:       100.9673 deg
Eccentricity:    0.0014544
Arg of perigee:   252.0872 deg
Mean anomaly:     107.8750 deg
Mean motion:   14.82571621 rev/day
Decay rate:       9.23e-06 rev/day^2
Epoch rev:           14966
Checksum:              336

Satellite: CO-66
Catalog number: 32791
Epoch time:      11034.74497573
Element set:     890
Inclination:      097.8657 deg
RA of node:       100.9497 deg
Eccentricity:    0.0015020
Arg of perigee:   248.8748 deg
Mean anomaly:     111.0854 deg
Mean motion:   14.81870645 rev/day
Decay rate:       5.92e-06 rev/day^2
Epoch rev:           14974
Checksum:              342

Satellite: RS-30
Catalog number: 32953
Epoch time:      11034.69672127
Element set:     438
Inclination:      082.4978 deg
RA of node:       245.7142 deg
Eccentricity:    0.0018633
Arg of perigee:   320.1622 deg
Mean anomaly:     039.8091 deg
Mean motion:   12.43010473 rev/day
Decay rate:        1.0e-07 rev/day^2
Epoch rev:           12250
Checksum:              266

Satellite: TACSAT-3
Catalog number: 35001
Epoch time:      11034.86128549
Element set:     495
Inclination:      040.4551 deg
RA of node:       259.6741 deg
Eccentricity:    0.0024299
Arg of perigee:   298.2766 deg
Mean anomaly:     061.5606 deg
Mean motion:   15.44638965 rev/day
Decay rate:      4.961e-05 rev/day^2
Epoch rev:            9643
Checksum:              327

Satellite: PHARMSAT
Catalog number: 35002
Epoch time:      11033.85276349
Element set:     461
Inclination:      040.4692 deg
RA of node:       263.2408 deg
Eccentricity:    0.0026336
Arg of perigee:   295.1619 deg
Mean anomaly:     064.6475 deg
Mean motion:   15.44848942 rev/day
Decay rate:      4.337e-05 rev/day^2
Epoch rev:            9630
Checksum:              300

Satellite: HAWKSAT1
Catalog number: 35003
Epoch time:      11034.81370514
Element set:     502
Inclination:      040.4591 deg
RA of node:       242.2735 deg
Eccentricity:    0.0025262
Arg of perigee:   326.0749 deg
Mean anomaly:     033.8506 deg
Mean motion:   15.51565422 rev/day
Decay rate:     1.3391e-04 rev/day^2
Epoch rev:            9662
Checksum:              261

Satellite: CP6
Catalog number: 35004
Epoch time:      11033.95327067
Element set:    0505
Inclination:      040.4596 deg
RA of node:       243.5751 deg
Eccentricity:    0.0024663
Arg of perigee:   326.0330 deg
Mean anomaly:     033.8908 deg
Mean motion:   15.53771340 rev/day
Decay rate:     1.5451e-04 rev/day^2
Epoch rev:           09652
Checksum:              280

Satellite: AEROCUB3
Catalog number: 35005
Epoch time:      11006.09222617
Element set:     610
Inclination:      040.4461 deg
RA of node:       021.7975 deg
Eccentricity:    0.0025578
Arg of perigee:   084.1677 deg
Mean anomaly:     280.7191 deg
Mean motion:   16.39196088 rev/day
Decay rate:  1.4049365e-01 rev/day^2
Epoch rev:            9254
Checksum:              305

Satellite: METEOR-M
Catalog number: 35865
Epoch time:      11034.72716586
Element set:      67
Inclination:      098.7262 deg
RA of node:       091.4727 deg
Eccentricity:    0.0003318
Arg of perigee:   059.2730 deg
Mean anomaly:     300.8728 deg
Mean motion:   14.21834242 rev/day
Decay rate:       1.76e-06 rev/day^2
Epoch rev:            7162
Checksum:              295

